[{"OBJECT_NAME":"STARLINK-30070","OBJECT_ID":"2023-067V","EPOCH":"2026-03-09T21:56:43.677024","MEAN_MOTION":15.27573671,"ECCENTRICITY":0.00011029,"INCLINATION":43.0037,"RA_OF_ASC_NODE":269.8522,"ARG_OF_PERICENTER":281.1267,"MEAN_ANOMALY":78.9461,"EPHEMERIS_TYPE":0,"CLASSIFICATION_TYPE":"U","NORAD_CAT_ID":56707,"ELEMENT_SET_NO":999,"REV_AT_EPOCH":15573,"BSTAR":-7.810323e-6,"MEAN_MOTION_DOT":-4.77e-6,"MEAN_MOTION_DDOT":0},{"OBJECT_NAME":"COSMOS 1862","OBJECT_ID":"1987-055A","EPOCH":"2026-03-09T22:37:02.390592","MEAN_MOTION":15.30492139,"ECCENTRICITY":0.00097484,"INCLINATION":82.4856,"RA_OF_ASC_NODE":47.1862,"ARG_OF_PERICENTER":26.6325,"MEAN_ANOMALY":333.5414,"EPHEMERIS_TYPE":0,"CLASSIFICATION_TYPE":"U","NORAD_CAT_ID":18152,"ELEMENT_SET_NO":999,"REV_AT_EPOCH":8987,"BSTAR":0.00034125048,"MEAN_MOTION_DOT":0.00010107,"MEAN_MOTION_DDOT":0}]
